[{"OBJECT_NAME":"SL-8 R/B","OBJECT_ID":"1991-006B","EPOCH":"2026-03-12T18:11:35.317824","MEAN_MOTION":13.77494761,"ECCENTRICITY":0.00228988,"INCLINATION":82.9465,"RA_OF_ASC_NODE":167.7649,"ARG_OF_PERICENTER":29.9453,"MEAN_ANOMALY":82.4219,"EPHEMERIS_TYPE":0,"CLASSIFICATION_TYPE":"U","NORAD_CAT_ID":21088,"ELEMENT_SET_NO":999,"REV_AT_EPOCH":76449,"BSTAR":6.649455e-5,"MEAN_MOTION_DOT":8.2e-7,"MEAN_MOTION_DDOT":0},{"OBJECT_NAME":"OKEAN-3","OBJECT_ID":"1991-039A","EPOCH":"2026-03-12T17:42:24.454656","MEAN_MOTION":15.0483178,"ECCENTRICITY":0.00136533,"INCLINATION":82.5197,"RA_OF_ASC_NODE":333.8906,"ARG_OF_PERICENTER":326.2421,"MEAN_ANOMALY":33.7935,"EPHEMERIS_TYPE":0,"CLASSIFICATION_TYPE":"U","NORAD_CAT_ID":21397,"ELEMENT_SET_NO":999,"REV_AT_EPOCH":86549,"BSTAR":0.00029134078,"MEAN_MOTION_DOT":4.149e-5,"MEAN_MOTION_DDOT":0},{"OBJECT_NAME":"COSMOS 2151","OBJECT_ID":"1991-042A","EPOCH":"2026-03-13T00:26:40.072704","MEAN_MOTION":15.00118564,"ECCENTRICITY":0.0013855,"INCLINATION":82.493,"RA_OF_ASC_NODE":80.4641,"ARG_OF_PERICENTER":53.5983,"MEAN_ANOMALY":306.6517,"EPHEMERIS_TYPE":0,"CLASSIFICATION_TYPE":"U","NORAD_CAT_ID":21422,"ELEMENT_SET_NO":999,"REV_AT_EPOCH":86369,"BSTAR":0.00019527,"MEAN_MOTION_DOT":2.466e-5,"MEAN_MOTION_DDOT":0},{"OBJECT_NAME":"SL-14 R/B","OBJECT_ID":"1991-042B","EPOCH":"2026-03-12T20:44:03.144192","MEAN_MOTION":14.81833532,"ECCENTRICITY":0.0015958,"INCLINATION":82.493,"RA_OF_ASC_NODE":217.2057,"ARG_OF_PERICENTER":227.4264,"MEAN_ANOMALY":132.5605,"EPHEMERIS_TYPE":0,"CLASSIFICATION_TYPE":"U","NORAD_CAT_ID":21423,"ELEMENT_SET_NO":999,"REV_AT_EPOCH":85354,"BSTAR":7.5581004e-5,"MEAN_MOTION_DOT":6.21e-6,"MEAN_MOTION_DDOT":0},{"OBJECT_NAME":"ERS-1","OBJECT_ID":"1991-050A","EPOCH":"2026-03-12T14:48:10.948032","MEAN_MOTION":14.39452058,"ECCENTRICITY":0.00317843,"INCLINATION":98.7879,"RA_OF_ASC_NODE":89.9249,"ARG_OF_PERICENTER":191.6849,"MEAN_ANOMALY":168.3604,"EPHEMERIS_TYPE":0,"CLASSIFICATION_TYPE":"U","NORAD_CAT_ID":21574,"ELEMENT_SET_NO":999,"REV_AT_EPOCH":81615,"BSTAR":0.0001425254,"MEAN_MOTION_DOT":4.0e-6,"MEAN_MOTION_DDOT":0},{"OBJECT_NAME":"ARIANE 40 R/B","OBJECT_ID":"1991-050F","EPOCH":"2026-03-13T00:10:48.813024","MEAN_MOTION":14.42896346,"ECCENTRICITY":0.0004229,"INCLINATION":98.2005,"RA_OF_ASC_NODE":124.1192,"ARG_OF_PERICENTER":73.8989,"MEAN_ANOMALY":286.2667,"EPHEMERIS_TYPE":0,"CLASSIFICATION_TYPE":"U","NORAD_CAT_ID":21610,"ELEMENT_SET_NO":999,"REV_AT_EPOCH":81947,"BSTAR":0.0001166,"MEAN_MOTION_DOT":3.48e-6,"MEAN_MOTION_DDOT":0},{"OBJECT_NAME":"INTERCOSMOS 25","OBJECT_ID":"1991-086A","EPOCH":"2026-03-12T17:05:32.834976","MEAN_MOTION":12.1201005,"ECCENTRICITY":0.14869134,"INCLINATION":82.6045,"RA_OF_ASC_NODE":308.1814,"ARG_OF_PERICENTER":110.4228,"MEAN_ANOMALY":266.2502,"EPHEMERIS_TYPE":0,"CLASSIFICATION_TYPE":"U","NORAD_CAT_ID":21819,"ELEMENT_SET_NO":999,"REV_AT_EPOCH":49705,"BSTAR":0.00039707881,"MEAN_MOTION_DOT":2.062e-5,"MEAN_MOTION_DDOT":0},{"OBJECT_NAME":"SL-8 R/B","OBJECT_ID":"1992-008B","EPOCH":"2026-03-13T00:05:46.128768","MEAN_MOTION":13.75969806,"ECCENTRICITY":0.0035673,"INCLINATION":82.9221,"RA_OF_ASC_NODE":265.3122,"ARG_OF_PERICENTER":124.3739,"MEAN_ANOMALY":345.9267,"EPHEMERIS_TYPE":0,"CLASSIFICATION_TYPE":"U","NORAD_CAT_ID":21876,"ELEMENT_SET_NO":999,"REV_AT_EPOCH":70987,"BSTAR":-1.9625e-6,"MEAN_MOTION_DOT":1.4e-7,"MEAN_MOTION_DDOT":0},{"OBJECT_NAME":"SL-8 R/B","OBJECT_ID":"1992-020B","EPOCH":"2026-03-12T18:14:01.008960","MEAN_MOTION":13.75549798,"ECCENTRICITY":0.00276292,"INCLINATION":82.9332,"RA_OF_ASC_NODE":151.4824,"ARG_OF_PERICENTER":289.846,"MEAN_ANOMALY":192.9632,"EPHEMERIS_TYPE":0,"CLASSIFICATION_TYPE":"U","NORAD_CAT_ID":21938,"ELEMENT_SET_NO":999,"REV_AT_EPOCH":70155,"BSTAR":3.9947641e-5,"MEAN_MOTION_DOT":5.3e-7,"MEAN_MOTION_DDOT":0},{"OBJECT_NAME":"USA 81","OBJECT_ID":"1992-023A","EPOCH":"2026-03-12T15:54:16.117920","MEAN_MOTION":14.32369041,"ECCENTRICITY":0.00023812,"INCLINATION":85.0079,"RA_OF_ASC_NODE":129.7261,"ARG_OF_PERICENTER":74.9437,"MEAN_ANOMALY":285.2019,"EPHEMERIS_TYPE":0,"CLASSIFICATION_TYPE":"U","NORAD_CAT_ID":21949,"ELEMENT_SET_NO":999,"REV_AT_EPOCH":9521,"BSTAR":6.1110963e-5,"MEAN_MOTION_DOT":1.85e-6,"MEAN_MOTION_DDOT":0},{"OBJECT_NAME":"COSMOS 2219","OBJECT_ID":"1992-076A","EPOCH":"2026-03-12T23:41:30.878880","MEAN_MOTION":14.14093432,"ECCENTRICITY":0.00187929,"INCLINATION":71.064,"RA_OF_ASC_NODE":11.1748,"ARG_OF_PERICENTER":202.442,"MEAN_ANOMALY":157.5883,"EPHEMERIS_TYPE":0,"CLASSIFICATION_TYPE":"U","NORAD_CAT_ID":22219,"ELEMENT_SET_NO":999,"REV_AT_EPOCH":71884,"BSTAR":4.1102311e-5,"MEAN_MOTION_DOT":3.1e-7,"MEAN_MOTION_DDOT":0},{"OBJECT_NAME":"SL-16 R/B","OBJECT_ID":"1992-076B","EPOCH":"2026-03-12T18:00:13.520736","MEAN_MOTION":14.16859247,"ECCENTRICITY":0.00104804,"INCLINATION":71.0008,"RA_OF_ASC_NODE":181.9273,"ARG_OF_PERICENTER":90.7055,"MEAN_ANOMALY":61.168,"EPHEMERIS_TYPE":0,"CLASSIFICATION_TYPE":"U","NORAD_CAT_ID":22220,"ELEMENT_SET_NO":999,"REV_AT_EPOCH":72226,"BSTAR":-3.0862606e-5,"MEAN_MOTION_DOT":-1.1e-6,"MEAN_MOTION_DDOT":0},{"OBJECT_NAME":"COSMOS 2221","OBJECT_ID":"1992-080A","EPOCH":"2026-03-12T23:32:59.401248","MEAN_MOTION":14.96215489,"ECCENTRICITY":0.0014317,"INCLINATION":82.5012,"RA_OF_ASC_NODE":275.9275,"ARG_OF_PERICENTER":175.9855,"MEAN_ANOMALY":184.1484,"EPHEMERIS_TYPE":0,"CLASSIFICATION_TYPE":"U","NORAD_CAT_ID":22236,"ELEMENT_SET_NO":999,"REV_AT_EPOCH":78128,"BSTAR":0.00021161,"MEAN_MOTION_DOT":2.416e-5,"MEAN_MOTION_DDOT":0},{"OBJECT_NAME":"SL-16 R/B","OBJECT_ID":"1992-093B","EPOCH":"2026-03-12T23:46:04.322784","MEAN_MOTION":14.15447134,"ECCENTRICITY":0.0006375,"INCLINATION":71.0242,"RA_OF_ASC_NODE":357.3374,"ARG_OF_PERICENTER":290.1836,"MEAN_ANOMALY":69.8601,"EPHEMERIS_TYPE":0,"CLASSIFICATION_TYPE":"U","NORAD_CAT_ID":22285,"ELEMENT_SET_NO":999,"REV_AT_EPOCH":71362,"BSTAR":-3.9059e-5,"MEAN_MOTION_DOT":-1.24e-6,"MEAN_MOTION_DDOT":0},{"OBJECT_NAME":"COSMOS 2228","OBJECT_ID":"1992-094A","EPOCH":"2026-03-12T22:17:09.871008","MEAN_MOTION":14.9720943,"ECCENTRICITY":0.00166824,"INCLINATION":82.5159,"RA_OF_ASC_NODE":234.2087,"ARG_OF_PERICENTER":292.9073,"MEAN_ANOMALY":67.0388,"EPHEMERIS_TYPE":0,"CLASSIFICATION_TYPE":"U","NORAD_CAT_ID":22286,"ELEMENT_SET_NO":999,"REV_AT_EPOCH":77654,"BSTAR":0.00027505776,"MEAN_MOTION_DOT":3.215e-5,"MEAN_MOTION_DDOT":0},{"OBJECT_NAME":"SL-16 R/B","OBJECT_ID":"1993-016B","EPOCH":"2026-03-12T19:39:25.118208","MEAN_MOTION":14.15309352,"ECCENTRICITY":0.0012038,"INCLINATION":71.0079,"RA_OF_ASC_NODE":208.6082,"ARG_OF_PERICENTER":309.9663,"MEAN_ANOMALY":50.0401,"EPHEMERIS_TYPE":0,"CLASSIFICATION_TYPE":"U","NORAD_CAT_ID":22566,"ELEMENT_SET_NO":999,"REV_AT_EPOCH":70261,"BSTAR":1.006434e-5,"MEAN_MOTION_DOT":-2.8e-7,"MEAN_MOTION_DDOT":0},{"OBJECT_NAME":"COSMOS 2242","OBJECT_ID":"1993-024A","EPOCH":"2026-03-12T23:29:46.254912","MEAN_MOTION":14.96563844,"ECCENTRICITY":0.00150056,"INCLINATION":82.5155,"RA_OF_ASC_NODE":263.5694,"ARG_OF_PERICENTER":296.8632,"MEAN_ANOMALY":63.1056,"EPHEMERIS_TYPE":0,"CLASSIFICATION_TYPE":"U","NORAD_CAT_ID":22626,"ELEMENT_SET_NO":999,"REV_AT_EPOCH":78088,"BSTAR":0.0001852052,"MEAN_MOTION_DOT":2.137e-5,"MEAN_MOTION_DDOT":0}]
