SL-8 R/B                
1 21088U 91006B   26071.75804766  .00000082  00000+0  66495-4 0  9997
2 21088  82.9465 167.7649 0022898  29.9453  82.4219 13.77494761764491
OKEAN-3                 
1 21397U 91039A   26071.73778304  .00004149  00000+0  29134-3 0  9998
2 21397  82.5197 333.8906 0013653 326.2421  33.7935 15.04831780865495
COSMOS 2151             
1 21422U 91042A   26072.01851936  .00002466  00000+0  19527-3 0  9991
2 21422  82.4930  80.4641 0013855  53.5983 306.6517 15.00118564863698
SL-14 R/B               
1 21423U 91042B   26071.86392528  .00000621  00000+0  75581-4 0  9995
2 21423  82.4930 217.2057 0015958 227.4264 132.5605 14.81833532853544
ERS-1                   
1 21574U 91050A   26071.61679338  .00000400  00000+0  14253-3 0  9994
2 21574  98.7879  89.9249 0031784 191.6849 168.3604 14.39452058816151
ARIANE 40 R/B           
1 21610U 91050F   26072.00750941  .00000348  00000+0  11660-3 0  9999
2 21610  98.2005 124.1192 0004229  73.8989 286.2667 14.42896346819470
INTERCOSMOS 25          
1 21819U 91086A   26071.71218559  .00002062  00000+0  39708-3 0  9998
2 21819  82.6045 308.1814 1486913 110.4228 266.2502 12.12010050497053
SL-8 R/B                
1 21876U 92008B   26072.00400612  .00000014  00000+0 -19625-5 0  9996
2 21876  82.9221 265.3122 0035673 124.3739 345.9267 13.75969806709875
SL-8 R/B                
1 21938U 92020B   26071.75973390  .00000053  00000+0  39948-4 0  9999
2 21938  82.9332 151.4824 0027629 289.8460 192.9632 13.75549798701558
USA 81                  
1 21949U 92023A   26071.66268655  .00000185  00000+0  61111-4 0  9998
2 21949  85.0079 129.7261 0002381  74.9437 285.2019 14.32369041 95219
COSMOS 2219             
1 22219U 92076A   26071.98716295  .00000031  00000+0  41102-4 0  9998
2 22219  71.0640  11.1748 0018792 202.4420 157.5883 14.14093432718845
SL-16 R/B               
1 22220U 92076B   26071.75015649 -.00000110  00000+0 -30863-4 0  9992
2 22220  71.0008 181.9273 0010480  90.7055  61.1680 14.16859247722264
COSMOS 2221             
1 22236U 92080A   26071.98124307  .00002416  00000+0  21161-3 0  9990
2 22236  82.5012 275.9275 0014317 175.9855 184.1484 14.96215489781283
SL-16 R/B               
1 22285U 92093B   26071.99032781 -.00000124  00000+0 -39059-4 0  9995
2 22285  71.0242 357.3374 0006375 290.1836  69.8601 14.15447134713622
COSMOS 2228             
1 22286U 92094A   26071.92858647  .00003215  00000+0  27506-3 0  9992
2 22286  82.5159 234.2087 0016682 292.9073  67.0388 14.97209430776543
SL-16 R/B               
1 22566U 93016B   26071.81904072 -.00000028  00000+0  10064-4 0  9992
2 22566  71.0079 208.6082 0012038 309.9663  50.0401 14.15309352702612
COSMOS 2242             
1 22626U 93024A   26071.97900758  .00002137  00000+0  18521-3 0  9999
2 22626  82.5155 263.5694 0015005 296.8632  63.1056 14.96563844780880
